OBJECT_NAME,OBJECT_ID,EPOCH,MEAN_MOTION,ECCENTRICITY,INCLINATION,RA_OF_ASC_NODE,ARG_OF_PERICENTER,MEAN_ANOMALY,EPHEMERIS_TYPE,CLASSIFICATION_TYPE,NORAD_CAT_ID,ELEMENT_SET_NO,REV_AT_EPOCH,BSTAR,MEAN_MOTION_DOT,MEAN_MOTION_DDOT
GPS BIIR-5  (PRN 22),2000-040A,2026-07-08T11:20:39.298848,2.00557791,.01206452,54.8493,214.3168,302.6616,229.9611,0,U,26407,999,19037,0,.104E-5,0
GPS BIIR-8  (PRN 16),2003-005A,2026-07-08T15:39:16.360416,2.00559360,.01481491,54.8798,214.1159,53.1367,25.3265,0,U,27663,999,17174,0,.106E-5,0
GPS BIIR-11 (PRN 19),2004-009A,2026-07-08T08:45:38.598048,2.00553955,.01169547,54.8121,274.8310,174.0325,209.7158,0,U,28190,999,16337,0,-.2E-6,0
GPS BIIR-13 (PRN 02),2004-045A,2026-07-07T17:49:07.665312,2.00556754,.01700568,55.1231,324.0687,316.8842,42.3770,0,U,28474,999,15884,0,-.72E-6,0
GPS BIIRM-1 (PRN 17),2005-038A,2026-07-08T09:22:55.374816,2.00564164,.01281297,54.8609,272.3211,296.3320,135.5610,0,U,28874,999,15226,0,-.14E-6,0
INMARSAT 4-F2 (SOUTHPAN/PRN 122),2005-044A,2026-07-08T21:13:14.212128,1.00271641,.00029863,5.1219,43.6470,56.2653,288.7170,0,U,28899,999,7573,0,-.25E-5,0
GPS BIIRM-2 (PRN 31),2006-042A,2026-07-08T22:43:42.458016,2.00568562,.0106995,54.7126,150.4750,54.9709,317.2931,0,U,29486,999,14483,0,.68E-6,0
GPS BIIRM-3 (PRN 12),2006-052A,2026-07-08T08:37:13.608192,2.00559276,.00848129,54.9329,213.1669,90.9771,270.0548,0,U,29601,999,14383,0,.105E-5,0
GPS BIIRM-4 (PRN 15),2007-047A,2026-07-08T03:59:08.092896,2.00554223,.01675511,54.1103,79.2010,87.8321,274.1296,0,U,32260,999,13723,0,-.35E-6,0
COSMOS 2433 (720),2007-052A,2026-07-06T14:59:12.681312,2.13104455,.00031852,65.5650,315.2799,201.3457,158.6520,0,U,32275,999,14547,0,-.46E-6,0
COSMOS 2432 (719),2007-052B,2026-07-07T14:21:15.986016,2.13103453,.0007481,65.5804,315.3755,325.2447,5.5151,0,U,32276,999,14551,0,-.49E-6,0
GPS BIIRM-5 (PRN 29),2007-062A,2026-07-08T10:56:34.227744,2.00561245,.00360062,55.0147,273.2970,167.0393,170.0598,0,U,32384,999,13593,0,-.16E-6,0
COSMOS 2434 (721),2007-065A,2026-07-08T21:10:36.963264,2.13101412,.00012747,64.3197,191.1839,326.7883,215.1474,0,U,32393,999,14423,0,.126E-5,0
COSMOS 2436 (723),2007-065C,2026-07-08T03:08:12.342624,2.13100210,.00172808,64.3283,191.2816,353.5222,103.9798,0,U,32395,999,14417,0,.125E-5,0
GPS BIIRM-6 (PRN 07),2008-012A,2026-07-08T01:48:37.739520,2.00572926,.0211609,54.4995,149.0904,248.0781,109.6420,0,U,32711,999,13417,0,.74E-6,0
GPS BIIRM-8 (PRN 05),2009-043A,2026-07-08T06:34:22.111392,2.00553114,.00537774,56.2235,26.6243,84.0912,67.3734,0,U,35752,999,12378,0,-.54E-6,0
COSMOS 2456 (730),2009-070A,2026-07-08T03:53:29.603616,2.13103862,.00038367,65.0231,70.2570,336.8240,170.8468,0,U,36111,999,12887,0,-.24E-6,0
COSMOS 2457 (733),2009-070B,2026-07-08T11:52:00.073056,2.13101312,.00037587,65.0088,70.0892,123.4428,46.3694,0,U,36112,999,12888,0,-.25E-6,0
COSMOS 2460 (732),2010-007C,2026-07-08T12:08:11.624640,2.13101790,.0001829,65.4070,313.7457,134.0174,46.3781,0,U,36402,999,12718,0,-.53E-6,0
GPS BIIF-1  (PRN 25),2010-022A,2026-07-08T11:03:54.573984,2.00563411,.01265958,54.2691,207.7050,66.1483,340.0151,0,U,36585,999,11802,0,.11E-5,0
BEIDOU-2 IGSO-1 (C06),2010-036A,2026-07-07T14:57:11.145024,1.00266308,.0059224,54.3062,162.7756,225.1869,229.2421,0,U,36828,999,5830,0,-.58E-6,0
BEIDOU-2 G4 (C04),2010-057A,2026-07-08T19:35:28.326048,1.00270552,.00052982,3.6970,68.8160,185.3883,126.3837,0,U,37210,999,5750,0,-.102E-5,0
BEIDOU-2 IGSO-2 (C07),2010-068A,2026-07-08T14:28:30.978048,1.00276139,.00567556,47.5085,271.5668,213.3757,127.0514,0,U,37256,999,5700,0,-.203E-5,0
GSAT-8 (GAGAN/PRN 127),2011-022A,2026-07-08T20:20:38.704416,1.00271175,.0002546,2.1838,81.5628,166.3466,39.1203,0,U,37605,999,5343,0,.97E-6,0
BEIDOU-2 IGSO-4 (C09),2011-038A,2026-07-08T22:10:32.983104,1.00281046,.01601663,54.6042,165.4802,231.4337,316.7492,0,U,37763,999,5486,0,.47E-6,0
GSAT0101 (GALILEO-PFM),2011-060A,2026-07-08T13:14:56.643936,1.70475585,.0002415,56.9869,341.1826,60.6868,299.3373,0,U,37846,999,9148,0,-.74E-6,0
GSAT0102 (GALILEO-FM2),2011-060B,2026-07-08T11:27:00.571680,1.70475862,.00024239,56.9877,341.1851,11.7755,347.8886,0,U,37847,999,9148,0,-.74E-6,0
COSMOS 2476 (744),2011-064A,2026-07-08T07:52:37.668864,2.13103973,.00224004,65.2814,72.1581,236.6261,306.7703,0,U,37867,999,11421,0,-.23E-6,0
COSMOS 2477 (745),2011-064B,2026-07-07T03:43:01.051392,2.13103195,.00193967,65.2873,72.2772,237.9015,305.6247,0,U,37868,999,11418,0,-.2E-6,0
COSMOS 2475 (743),2011-064C,2026-07-08T04:12:39.803616,2.13101995,.0025048,65.2947,72.2646,251.6541,309.8644,0,U,37869,999,11421,0,-.23E-6,0
